start=new Date('2022-06-02T00:00:00.000Z').valueOf();
sats=[{"BSTAR":"0.00006088400000","PERIOD":"95.592","APOAPSIS":"548.742","CLASSIFICATION_TYPE":"U","PERIAPSIS":"545.685","OBJECT_TYPE":"PAYLOAD","TLE_LINE2":"2 45714  53.0550  97.4560 0002207  49.5106 310.6075 15.06399946111634","ARG_OF_PERICENTER":"49.5106","COUNTRY_CODE":"US","MEAN_ELEMENT_THEORY":"SGP4","MEAN_ANOMALY":"310.6075","NORAD_CAT_ID":"45714","ELEMENT_SET_NO":"999","MEAN_MOTION_DDOT":"0.0000000000000","TLE_LINE1":"1 45714U 20035BK  22152.85825725  .00000625  00000-0  60884-4 0  9998","ECCENTRICITY":"0.00022070","GP_ID":"205122355","SEMIMAJOR_AXIS":"6925.349","TIME_SYSTEM":"UTC","RCS_SIZE":"LARGE","INCLINATION":"53.0550","MEAN_MOTION":"15.06399946","FILE":"3476255","MEAN_MOTION_DOT":"0.00000625","CENTER_NAME":"EARTH","RA_OF_ASC_NODE":"97.4560","OBJECT_NAME":"STARLINK-1437","EPHEMERIS_TYPE":"0","REF_FRAME":"TEME","EPOCH":"2022-06-01T20:35:53.426400","LAUNCH_DATE":"2020-06-04","REV_AT_EPOCH":"11163","OBJECT_ID":"2020-035BK","SITE":"AFETR","DECAY_DATE":null},{"SEMIMAJOR_AXIS":"6925.350","GP_ID":"205122605","ECCENTRICITY":"0.00017360","TLE_LINE1":"1 45730U 20038A   22152.67028352  .00003436  00000-0  24946-3 0  9991","MEAN_MOTION_DDOT":"0.0000000000000","NORAD_CAT_ID":"45730","ELEMENT_SET_NO":"999","MEAN_ELEMENT_THEORY":"SGP4","MEAN_ANOMALY":"293.3846","COUNTRY_CODE":"US","ARG_OF_PERICENTER":"66.7326","TLE_LINE2":"2 45730  53.0574 298.3077 0001736  66.7326 293.3846 15.06399512108654","OBJECT_TYPE":"PAYLOAD","PERIAPSIS":"546.013","APOAPSIS":"548.417","CLASSIFICATION_TYPE":"U","PERIOD":"95.592","BSTAR":"0.00024946000000","DECAY_DATE":null,"SITE":"AFETR","LAUNCH_DATE":"2020-06-13","REV_AT_EPOCH":"10865","OBJECT_ID":"2020-038A","EPHEMERIS_TYPE":"0","REF_FRAME":"TEME","EPOCH":"2022-06-01T16:05:12.496128","OBJECT_NAME":"STARLINK-1461","RA_OF_ASC_NODE":"298.3077","MEAN_MOTION_DOT":"0.00003436","CENTER_NAME":"EARTH","MEAN_MOTION":"15.06399512","FILE":"3476255","RCS_SIZE":"LARGE","TIME_SYSTEM":"UTC","INCLINATION":"53.0574"},{"MEAN_ANOMALY":"289.9674","MEAN_ELEMENT_THEORY":"SGP4","ELEMENT_SET_NO":"999","NORAD_CAT_ID":"45731","COUNTRY_CODE":"US","GP_ID":"205122858","SEMIMAJOR_AXIS":"6925.353","TLE_LINE1":"1 45731U 20038B   22152.68502434  .00003085  00000-0  22589-3 0  9992","MEAN_MOTION_DDOT":"0.0000000000000","ECCENTRICITY":"0.00014900","APOAPSIS":"548.250","CLASSIFICATION_TYPE":"U","PERIAPSIS":"546.186","BSTAR":"0.00022589000000","PERIOD":"95.592","TLE_LINE2":"2 45731  53.0558 298.2346 0001490  70.1475 289.9674 15.06398574108642","ARG_OF_PERICENTER":"70.1475","OBJECT_TYPE":"PAYLOAD","REV_AT_EPOCH":"10864","OBJECT_ID":"2020-038B","LAUNCH_DATE":"2020-06-13","OBJECT_NAME":"STARLINK-1465","EPOCH":"2022-06-01T16:26:26.102976","EPHEMERIS_TYPE":"0","REF_FRAME":"TEME","DECAY_DATE":null,"SITE":"AFETR","FILE":"3476255","MEAN_MOTION":"15.06398574","INCLINATION":"53.0558","TIME_SYSTEM":"UTC","RCS_SIZE":"LARGE","RA_OF_ASC_NODE":"298.2346","CENTER_NAME":"EARTH","MEAN_MOTION_DOT":"0.00003085"},{"COUNTRY_CODE":"US","MEAN_ELEMENT_THEORY":"SGP4","MEAN_ANOMALY":"298.2333","NORAD_CAT_ID":"45732","ELEMENT_SET_NO":"999","TLE_LINE1":"1 45732U 20038C   22152.80665661  .00003082  00000-0  22566-3 0  9991","ECCENTRICITY":"0.00016180","MEAN_MOTION_DDOT":"0.0000000000000","SEMIMAJOR_AXIS":"6925.325","GP_ID":"205123584","BSTAR":"0.00022566000000","PERIOD":"95.592","APOAPSIS":"548.310","CLASSIFICATION_TYPE":"U","PERIAPSIS":"546.069","OBJECT_TYPE":"PAYLOAD","TLE_LINE2":"2 45732  53.0549 297.6833 0001618  61.8819 298.2333 15.06407810108669","ARG_OF_PERICENTER":"61.8819","OBJECT_NAME":"STARLINK-1466","EPHEMERIS_TYPE":"0","REF_FRAME":"TEME","EPOCH":"2022-06-01T19:21:35.131104","LAUNCH_DATE":"2020-06-13","REV_AT_EPOCH":"10866","OBJECT_ID":"2020-038C","SITE":"AFETR","DECAY_DATE":null,"TIME_SYSTEM":"UTC","RCS_SIZE":"LARGE","INCLINATION":"53.0549","FILE":"3476255","MEAN_MOTION":"15.06407810","MEAN_MOTION_DOT":"0.00003082","CENTER_NAME":"EARTH","RA_OF_ASC_NODE":"297.6833"},{"GP_ID":"205122356","SEMIMAJOR_AXIS":"6925.451","TLE_LINE1":"1 45733U 20038D   22152.68134829  .00008469  00000-0  58730-3 0  9991","MEAN_MOTION_DDOT":"0.0000000000000","ECCENTRICITY":"0.00013670","ELEMENT_SET_NO":"999","NORAD_CAT_ID":"45733","MEAN_ANOMALY":"292.5930","MEAN_ELEMENT_THEORY":"SGP4","COUNTRY_CODE":"US","ARG_OF_PERICENTER":"67.5204","TLE_LINE2":"2 45733  53.0529 298.2477 0001367  67.5204 292.5930 15.06366489108645","OBJECT_TYPE":"PAYLOAD","PERIAPSIS":"546.370","CLASSIFICATION_TYPE":"U","APOAPSIS":"548.263","PERIOD":"95.594","BSTAR":"0.00058730000000","DECAY_DATE":null,"SITE":"AFETR","REV_AT_EPOCH":"10864","OBJECT_ID":"2020-038D","LAUNCH_DATE":"2020-06-13","EPOCH":"2022-06-01T16:21:08.492256","EPHEMERIS_TYPE":"0","REF_FRAME":"TEME","OBJECT_NAME":"STARLINK-1467","RA_OF_ASC_NODE":"298.2477","CENTER_NAME":"EARTH","MEAN_MOTION_DOT":"0.00008469","MEAN_MOTION":"15.06366489","FILE":"3476255","INCLINATION":"53.0529","TIME_SYSTEM":"UTC","RCS_SIZE":"LARGE"},{"DECAY_DATE":null,"SITE":"AFETR","REV_AT_EPOCH":"10864","OBJECT_ID":"2020-038E","LAUNCH_DATE":"2020-06-13","EPOCH":"2022-06-01T15:54:35.124192","EPHEMERIS_TYPE":"0","REF_FRAME":"TEME","OBJECT_NAME":"STARLINK-1468","RA_OF_ASC_NODE":"298.3406","MEAN_MOTION_DOT":"0.00001658","CENTER_NAME":"EARTH","FILE":"3476255","MEAN_MOTION":"15.06396419","INCLINATION":"53.0553","RCS_SIZE":"LARGE","TIME_SYSTEM":"UTC","SEMIMAJOR_AXIS":"6925.360","GP_ID":"205122106","MEAN_MOTION_DDOT":"0.0000000000000","TLE_LINE1":"1 45734U 20038E   22152.66290653  .00001658  00000-0  13021-3 0  9995","ECCENTRICITY":"0.00016610","ELEMENT_SET_NO":"999","NORAD_CAT_ID":"45734","MEAN_ANOMALY":"300.2845","MEAN_ELEMENT_THEORY":"SGP4","COUNTRY_CODE":"US","ARG_OF_PERICENTER":"59.8309","TLE_LINE2":"2 45734  53.0553 298.3406 0001661  59.8309 300.2845 15.06396419108641","OBJECT_TYPE":"PAYLOAD","PERIAPSIS":"546.074","APOAPSIS":"548.375","CLASSIFICATION_TYPE":"U","PERIOD":"95.592","BSTAR":"0.00013021000000"},{"MEAN_ANOMALY":"285.2919","MEAN_ELEMENT_THEORY":"SGP4","ELEMENT_SET_NO":"999","NORAD_CAT_ID":"45735","COUNTRY_CODE":"US","GP_ID":"205123358","SEMIMAJOR_AXIS":"6925.338","MEAN_MOTION_DDOT":"0.0000000000000","TLE_LINE1":"1 45735U 20038F   22152.76611848  .00003863  00000-0  27808-3 0  9998","ECCENTRICITY":"0.00015520","APOAPSIS":"548.278","CLASSIFICATION_TYPE":"U","PERIAPSIS":"546.129","BSTAR":"0.00027808000000","PERIOD":"95.592","TLE_LINE2":"2 45735  53.0560 297.8779 0001552  74.8242 285.2919 15.06403300108652","ARG_OF_PERICENTER":"74.8242","OBJECT_TYPE":"PAYLOAD","REV_AT_EPOCH":"10865","OBJECT_ID":"2020-038F","LAUNCH_DATE":"2020-06-13","OBJECT_NAME":"STARLINK-1471","EPOCH":"2022-06-01T18:23:12.636672","EPHEMERIS_TYPE":"0","REF_FRAME":"TEME","DECAY_DATE":null,"SITE":"AFETR","MEAN_MOTION":"15.06403300","FILE":"3476255","INCLINATION":"53.0560","TIME_SYSTEM":"UTC","RCS_SIZE":"LARGE","RA_OF_ASC_NODE":"297.8779","CENTER_NAME":"EARTH","MEAN_MOTION_DOT":"0.00003863"},{"INCLINATION":"53.0620","TIME_SYSTEM":"UTC","RCS_SIZE":"LARGE","FILE":"3476255","MEAN_MOTION":"15.37501077","MEAN_MOTION_DOT":"0.00007670","CENTER_NAME":"EARTH","RA_OF_ASC_NODE":"272.8295","OBJECT_NAME":"STARLINK-1472","EPOCH":"2022-06-01T18:05:06.469440","REF_FRAME":"TEME","EPHEMERIS_TYPE":"0","REV_AT_EPOCH":"10901","OBJECT_ID":"2020-038G","LAUNCH_DATE":"2020-06-13","SITE":"AFETR","DECAY_DATE":null,"BSTAR":"0.00021570000000","PERIOD":"93.658","APOAPSIS":"454.455","CLASSIFICATION_TYPE":"U","PERIAPSIS":"452.553","OBJECT_TYPE":"PAYLOAD","TLE_LINE2":"2 45736  53.0620 272.8295 0001392 211.3337 148.7583 15.37501077109016","ARG_OF_PERICENTER":"211.3337","COUNTRY_CODE":"US","MEAN_ANOMALY":"148.7583","MEAN_ELEMENT_THEORY":"SGP4","ELEMENT_SET_NO":"999","NORAD_CAT_ID":"45736","TLE_LINE1":"1 45736U 20038G   22152.75354710  .00007670  00000-0  21570-3 0  9990","MEAN_MOTION_DDOT":"0.0000000000000","ECCENTRICITY":"0.00013920","SEMIMAJOR_AXIS":"6831.639","GP_ID":"205123085"},{"CENTER_NAME":"EARTH","MEAN_MOTION_DOT":"0.00003262","RA_OF_ASC_NODE":"297.6284","TIME_SYSTEM":"UTC","RCS_SIZE":"LARGE","INCLINATION":"53.0565","FILE":"3476255","MEAN_MOTION":"15.06401419","SITE":"AFETR","DECAY_DATE":null,"OBJECT_NAME":"STARLINK-1474","EPHEMERIS_TYPE":"0","REF_FRAME":"TEME","EPOCH":"2022-06-01T19:42:49.455072","LAUNCH_DATE":"2020-06-13","REV_AT_EPOCH":"10866","OBJECT_ID":"2020-038J","OBJECT_TYPE":"PAYLOAD","TLE_LINE2":"2 45738  53.0565 297.6284 0001551  71.3021 288.8136 15.06401419108665","ARG_OF_PERICENTER":"71.3021","BSTAR":"0.00023777000000","PERIOD":"95.592","CLASSIFICATION_TYPE":"U","APOAPSIS":"548.283","PERIAPSIS":"546.135","TLE_LINE1":"1 45738U 20038J   22152.82140573  .00003262  00000-0  23777-3 0  9994","ECCENTRICITY":"0.00015510","MEAN_MOTION_DDOT":"0.0000000000000","SEMIMAJOR_AXIS":"6925.344","GP_ID":"205121857","COUNTRY_CODE":"US","MEAN_ELEMENT_THEORY":"SGP4","MEAN_ANOMALY":"288.8136","NORAD_CAT_ID":"45738","ELEMENT_SET_NO":"999"},{"SITE":"AFETR","DECAY_DATE":null,"OBJECT_NAME":"STARLINK-1475","EPHEMERIS_TYPE":"0","REF_FRAME":"TEME","EPOCH":"2022-06-01T13:41:54.146976","LAUNCH_DATE":"2020-06-13","OBJECT_ID":"2020-038K","REV_AT_EPOCH":"11015","MEAN_MOTION_DOT":"0.00002827","CENTER_NAME":"EARTH","RA_OF_ASC_NODE":"258.7421","TIME_SYSTEM":"UTC","RCS_SIZE":"LARGE","INCLINATION":"53.0557","MEAN_MOTION":"15.06397458","FILE":"3475881","TLE_LINE1":"1 45739U 20038K   22152.57076559  .00002827  00000-0  20864-3 0  9999","MEAN_MOTION_DDOT":"0.0000000000000","ECCENTRICITY":"0.00016750","SEMIMAJOR_AXIS":"6925.356","GP_ID":"205094471","COUNTRY_CODE":"US","MEAN_ELEMENT_THEORY":"SGP4","MEAN_ANOMALY":"295.7059","NORAD_CAT_ID":"45739","ELEMENT_SET_NO":"999","OBJECT_TYPE":"PAYLOAD","TLE_LINE2":"2 45739  53.0557 258.7421 0001675  64.4103 295.7059 15.06397458110154","ARG_OF_PERICENTER":"64.4103","BSTAR":"0.00020864000000","PERIOD":"95.592","APOAPSIS":"548.381","CLASSIFICATION_TYPE":"U","PERIAPSIS":"546.061"}];
